FLOCK 4H-15             
1 66718U 25276BE  26186.15631842  .00012336  00000+0  57882-3 0  9990
2 66718  97.4209 259.3497 0003070 329.3147  30.7908 15.19792041 33146
FLOCK 4H-16             
1 66719U 25276BF  26186.19661685  .00011781  00000+0  54872-3 0  9992
2 66719  97.4224 259.4936 0002830 312.0117  48.0877 15.20057507 33153
FLOCK 4H-18             
1 66721U 25276BH  26186.20240187  .00011854  00000+0  55299-3 0  9992
2 66721  97.4169 259.3215 0002826 345.7204  14.3951 15.20000321 33159
FLOCK 4H-20             
1 66723U 25276BK  26186.14693000  .00011650  00000+0  52264-3 0  9996
2 66723  97.4206 259.8101 0001838 204.2945 155.8204 15.21355291 32426
FLOCK 4H-21             
1 66724U 25276BL  26186.57030407  .00008968  00000+0  40798-3 0  9997
2 66724  97.4171 260.0616 0001707 199.7176 160.3994 15.20946285 32483
FLOCK 4H-22             
1 66725U 25276BM  26186.15093187  .00013097  00000+0  60317-3 0  9994
2 66725  97.4162 259.3685 0001821   0.9276 359.1963 15.20423025 33153
FLOCK 4H-23             
1 66726U 25276BN  26186.20159919  .00011503  00000+0  53707-3 0  9992
2 66726  97.4229 259.5004 0002875 300.0202  60.0747 15.19980347 33159
FLOCK 4H-24             
1 66727U 25276BP  26186.18709699  .00011576  00000+0  53878-3 0  9995
2 66727  97.4226 259.5141 0002639 325.3420  34.7643 15.20086597 33158
FLOCK 4H-25             
1 66728U 25276BQ  26186.19347247  .00009897  00000+0  45098-3 0  9992
2 66728  97.4185 259.6819 0001399 129.0485 231.0875 15.20860103 32452
FLOCK 4H-26             
1 66729U 25276BR  26186.15287822  .00012011  00000+0  56333-3 0  9997
2 66729  97.4180 259.2727 0003459 317.9104  42.1865 15.19812253 33145
FLOCK 4H-27             
1 66730U 25276BS  26186.15712223  .00011502  00000+0  52631-3 0  9998
2 66730  97.4158 259.5049 0001110 118.3506 241.7841 15.20676531 33165
FLOCK 4H-29             
1 66732U 25276BU  26186.19916146  .00011925  00000+0  55710-3 0  9994
2 66732  97.4160 259.3012 0002254 346.2825  13.8349 15.19951394 33155
FLOCK 4H-30             
1 66733U 25276BV  26186.19187383  .00011292  00000+0  52586-3 0  9993
2 66733  97.4222 259.4914 0002886 322.1783  37.9249 15.20074455 33156
FLOCK 4H-31             
1 66734U 25276BW  26186.14555014  .00012283  00000+0  57534-3 0  9998
2 66734  97.4158 259.2170 0002599 335.9570  24.1543 15.19853143 33145
FLOCK 4H-32             
1 66735U 25276BX  26186.20007723  .00011181  00000+0  52221-3 0  9999
2 66735  97.4214 259.4579 0003211 315.9379  44.1600 15.19973582 33158
