{"fetched_at":"2026-07-06T08:46:41.354Z","source":"https://celestrak.org/NORAD/elements/gp.php?GROUP=planet&FORMAT=JSON","constellation":"superdove","records":[{"OBJECT_NAME":"FLOCK 4H-15","OBJECT_ID":"2025-276BE","EPOCH":"2026-07-05T03:45:05.910624","CLASSIFICATION_TYPE":"U","MEAN_MOTION":15.19792041,"ECCENTRICITY":0.000307,"INCLINATION":97.4209,"RA_OF_ASC_NODE":259.3497,"ARG_OF_PERICENTER":329.3147,"MEAN_ANOMALY":30.7908,"EPHEMERIS_TYPE":0,"NORAD_CAT_ID":66718,"ELEMENT_SET_NO":999,"REV_AT_EPOCH":3314,"BSTAR":0.00057882,"MEAN_MOTION_DOT":0.00012336,"MEAN_MOTION_DDOT":0},{"OBJECT_NAME":"FLOCK 4H-16","OBJECT_ID":"2025-276BF","EPOCH":"2026-07-05T04:43:07.694976","CLASSIFICATION_TYPE":"U","MEAN_MOTION":15.20057507,"ECCENTRICITY":0.000283,"INCLINATION":97.4224,"RA_OF_ASC_NODE":259.4936,"ARG_OF_PERICENTER":312.0117,"MEAN_ANOMALY":48.0877,"EPHEMERIS_TYPE":0,"NORAD_CAT_ID":66719,"ELEMENT_SET_NO":999,"REV_AT_EPOCH":3315,"BSTAR":0.00054872,"MEAN_MOTION_DOT":0.00011781,"MEAN_MOTION_DDOT":0},{"OBJECT_NAME":"FLOCK 4H-18","OBJECT_ID":"2025-276BH","EPOCH":"2026-07-05T04:51:27.520704","CLASSIFICATION_TYPE":"U","MEAN_MOTION":15.20000321,"ECCENTRICITY":0.0002827,"INCLINATION":97.4169,"RA_OF_ASC_NODE":259.3215,"ARG_OF_PERICENTER":345.7204,"MEAN_ANOMALY":14.3951,"EPHEMERIS_TYPE":0,"NORAD_CAT_ID":66721,"ELEMENT_SET_NO":999,"REV_AT_EPOCH":3315,"BSTAR":0.00055299,"MEAN_MOTION_DOT":0.00011854,"MEAN_MOTION_DDOT":0},{"OBJECT_NAME":"FLOCK 4H-20","OBJECT_ID":"2025-276BK","EPOCH":"2026-07-05T03:31:34.752000","CLASSIFICATION_TYPE":"U","MEAN_MOTION":15.21355291,"ECCENTRICITY":0.0001838,"INCLINATION":97.4206,"RA_OF_ASC_NODE":259.8101,"ARG_OF_PERICENTER":204.2945,"MEAN_ANOMALY":155.8204,"EPHEMERIS_TYPE":0,"NORAD_CAT_ID":66723,"ELEMENT_SET_NO":999,"REV_AT_EPOCH":3242,"BSTAR":0.00052264,"MEAN_MOTION_DOT":0.0001165,"MEAN_MOTION_DDOT":0},{"OBJECT_NAME":"FLOCK 4H-21","OBJECT_ID":"2025-276BL","EPOCH":"2026-07-05T13:41:14.271648","CLASSIFICATION_TYPE":"U","MEAN_MOTION":15.20946285,"ECCENTRICITY":0.00017073,"INCLINATION":97.4171,"RA_OF_ASC_NODE":260.0616,"ARG_OF_PERICENTER":199.7176,"MEAN_ANOMALY":160.3994,"EPHEMERIS_TYPE":0,"NORAD_CAT_ID":66724,"ELEMENT_SET_NO":999,"REV_AT_EPOCH":3248,"BSTAR":0.00040798079,"MEAN_MOTION_DOT":0.00008968,"MEAN_MOTION_DDOT":0},{"OBJECT_NAME":"FLOCK 4H-22","OBJECT_ID":"2025-276BM","EPOCH":"2026-07-05T03:37:20.512704","CLASSIFICATION_TYPE":"U","MEAN_MOTION":15.20423025,"ECCENTRICITY":0.0001822,"INCLINATION":97.4162,"RA_OF_ASC_NODE":259.3685,"ARG_OF_PERICENTER":0.9276,"MEAN_ANOMALY":359.1963,"EPHEMERIS_TYPE":0,"NORAD_CAT_ID":66725,"ELEMENT_SET_NO":999,"REV_AT_EPOCH":3315,"BSTAR":0.00060317,"MEAN_MOTION_DOT":0.00013097,"MEAN_MOTION_DDOT":0},{"OBJECT_NAME":"FLOCK 4H-23","OBJECT_ID":"2025-276BN","EPOCH":"2026-07-05T04:50:18.170016","CLASSIFICATION_TYPE":"U","MEAN_MOTION":15.19980347,"ECCENTRICITY":0.0002875,"INCLINATION":97.4229,"RA_OF_ASC_NODE":259.5004,"ARG_OF_PERICENTER":300.0202,"MEAN_ANOMALY":60.0747,"EPHEMERIS_TYPE":0,"NORAD_CAT_ID":66726,"ELEMENT_SET_NO":999,"REV_AT_EPOCH":3315,"BSTAR":0.00053707,"MEAN_MOTION_DOT":0.00011503,"MEAN_MOTION_DDOT":0},{"OBJECT_NAME":"FLOCK 4H-24","OBJECT_ID":"2025-276BP","EPOCH":"2026-07-05T04:29:25.179072","CLASSIFICATION_TYPE":"U","MEAN_MOTION":15.20086597,"ECCENTRICITY":0.000264,"INCLINATION":97.4226,"RA_OF_ASC_NODE":259.5141,"ARG_OF_PERICENTER":325.342,"MEAN_ANOMALY":34.7643,"EPHEMERIS_TYPE":0,"NORAD_CAT_ID":66727,"ELEMENT_SET_NO":999,"REV_AT_EPOCH":3315,"BSTAR":0.00053878,"MEAN_MOTION_DOT":0.00011576,"MEAN_MOTION_DDOT":0},{"OBJECT_NAME":"FLOCK 4H-25","OBJECT_ID":"2025-276BQ","EPOCH":"2026-07-05T04:38:36.021408","CLASSIFICATION_TYPE":"U","MEAN_MOTION":15.20860103,"ECCENTRICITY":0.00014,"INCLINATION":97.4185,"RA_OF_ASC_NODE":259.6819,"ARG_OF_PERICENTER":129.0485,"MEAN_ANOMALY":231.0875,"EPHEMERIS_TYPE":0,"NORAD_CAT_ID":66728,"ELEMENT_SET_NO":999,"REV_AT_EPOCH":3245,"BSTAR":0.00045098,"MEAN_MOTION_DOT":0.00009897,"MEAN_MOTION_DDOT":0},{"OBJECT_NAME":"FLOCK 4H-26","OBJECT_ID":"2025-276BR","EPOCH":"2026-07-05T03:40:08.678208","CLASSIFICATION_TYPE":"U","MEAN_MOTION":15.19812253,"ECCENTRICITY":0.000346,"INCLINATION":97.418,"RA_OF_ASC_NODE":259.2727,"ARG_OF_PERICENTER":317.9104,"MEAN_ANOMALY":42.1865,"EPHEMERIS_TYPE":0,"NORAD_CAT_ID":66729,"ELEMENT_SET_NO":999,"REV_AT_EPOCH":3314,"BSTAR":0.00056333,"MEAN_MOTION_DOT":0.00012011,"MEAN_MOTION_DDOT":0},{"OBJECT_NAME":"FLOCK 4H-27","OBJECT_ID":"2025-276BS","EPOCH":"2026-07-05T03:46:15.359808","CLASSIFICATION_TYPE":"U","MEAN_MOTION":15.20676531,"ECCENTRICITY":0.0001111,"INCLINATION":97.4158,"RA_OF_ASC_NODE":259.5049,"ARG_OF_PERICENTER":118.3506,"MEAN_ANOMALY":241.7841,"EPHEMERIS_TYPE":0,"NORAD_CAT_ID":66730,"ELEMENT_SET_NO":999,"REV_AT_EPOCH":3316,"BSTAR":0.00052631,"MEAN_MOTION_DOT":0.00011502,"MEAN_MOTION_DDOT":0},{"OBJECT_NAME":"FLOCK 4H-29","OBJECT_ID":"2025-276BU","EPOCH":"2026-07-05T04:46:47.550144","CLASSIFICATION_TYPE":"U","MEAN_MOTION":15.19951394,"ECCENTRICITY":0.0002254,"INCLINATION":97.416,"RA_OF_ASC_NODE":259.3012,"ARG_OF_PERICENTER":346.2825,"MEAN_ANOMALY":13.8349,"EPHEMERIS_TYPE":0,"NORAD_CAT_ID":66732,"ELEMENT_SET_NO":999,"REV_AT_EPOCH":3315,"BSTAR":0.0005571,"MEAN_MOTION_DOT":0.00011925,"MEAN_MOTION_DDOT":0},{"OBJECT_NAME":"FLOCK 4H-30","OBJECT_ID":"2025-276BV","EPOCH":"2026-07-05T04:36:17.898048","CLASSIFICATION_TYPE":"U","MEAN_MOTION":15.20074455,"ECCENTRICITY":0.0002887,"INCLINATION":97.4222,"RA_OF_ASC_NODE":259.4914,"ARG_OF_PERICENTER":322.1783,"MEAN_ANOMALY":37.9249,"EPHEMERIS_TYPE":0,"NORAD_CAT_ID":66733,"ELEMENT_SET_NO":999,"REV_AT_EPOCH":3315,"BSTAR":0.00052586,"MEAN_MOTION_DOT":0.00011292,"MEAN_MOTION_DDOT":0},{"OBJECT_NAME":"FLOCK 4H-31","OBJECT_ID":"2025-276BW","EPOCH":"2026-07-05T03:29:35.532096","CLASSIFICATION_TYPE":"U","MEAN_MOTION":15.19853143,"ECCENTRICITY":0.00026,"INCLINATION":97.4158,"RA_OF_ASC_NODE":259.217,"ARG_OF_PERICENTER":335.957,"MEAN_ANOMALY":24.1543,"EPHEMERIS_TYPE":0,"NORAD_CAT_ID":66734,"ELEMENT_SET_NO":999,"REV_AT_EPOCH":3314,"BSTAR":0.00057534,"MEAN_MOTION_DOT":0.00012283,"MEAN_MOTION_DDOT":0},{"OBJECT_NAME":"FLOCK 4H-32","OBJECT_ID":"2025-276BX","EPOCH":"2026-07-05T04:48:06.671808","CLASSIFICATION_TYPE":"U","MEAN_MOTION":15.19973582,"ECCENTRICITY":0.0003211,"INCLINATION":97.4214,"RA_OF_ASC_NODE":259.4579,"ARG_OF_PERICENTER":315.9379,"MEAN_ANOMALY":44.16,"EPHEMERIS_TYPE":0,"NORAD_CAT_ID":66735,"ELEMENT_SET_NO":999,"REV_AT_EPOCH":3315,"BSTAR":0.00052221,"MEAN_MOTION_DOT":0.00011181,"MEAN_MOTION_DDOT":0}]}
